[{"OBJECT_NAME":"OBJECT D","OBJECT_ID":"2024-173D","EPOCH":"2026-03-09T23:30:29.956896","MEAN_MOTION":15.27005733,"ECCENTRICITY":0.00090093,"INCLINATION":97.3606,"RA_OF_ASC_NODE":149.3901,"ARG_OF_PERICENTER":241.6081,"MEAN_ANOMALY":118.425,"EPHEMERIS_TYPE":0,"CLASSIFICATION_TYPE":"U","NORAD_CAT_ID":61230,"ELEMENT_SET_NO":999,"REV_AT_EPOCH":8130,"BSTAR":0.00072064626,"MEAN_MOTION_DOT":0.00019078,"MEAN_MOTION_DDOT":0},{"OBJECT_NAME":"STARLINK-36334","OBJECT_ID":"2026-008AC","EPOCH":"2026-03-09T09:38:53.657088","MEAN_MOTION":15.27631199,"ECCENTRICITY":0.00046191,"INCLINATION":43.0015,"RA_OF_ASC_NODE":207.2306,"ARG_OF_PERICENTER":300.6201,"MEAN_ANOMALY":59.4195,"EPHEMERIS_TYPE":0,"CLASSIFICATION_TYPE":"U","NORAD_CAT_ID":67471,"ELEMENT_SET_NO":999,"REV_AT_EPOCH":952,"BSTAR":0.0015508272,"MEAN_MOTION_DOT":0.00042737,"MEAN_MOTION_DDOT":0}]
